{"fetched_at":"2026-03-29T16:36:15Z","count":15609,"tles":[{"name":"STARLINK-35676","line1":"1 67345U 26003M   26087.37408340  .00019864  00000+0  72928-3 0  9996","line2":"2 67345  43.0019 121.3501 0001576 269.8272  90.2400 15.27585830 11687","category":"Starlink"}]}